NSS-11                  
1 26554U 00059A   26181.37336462  .00000034  00000+0  00000+0 0  9993
2 26554   2.1591  81.2446 0003150  12.7648 134.8408  1.00271331 41421
AMC-6                   
1 26580U 00067A   26181.61142571  .00000098  00000+0  00000+0 0  9994
2 26580   0.1850  83.4491 0004048  27.3042 253.0074  1.00274068 94024
AMC-15                  
1 28446U 04041A   26181.59958123 -.00000078  00000+0  00000+0 0  9997
2 28446   0.0140   8.4145 0002519  89.4870 291.5620  1.00272002 79438
NSS-10                  
1 28526U 05003A   26181.50778737 -.00000246  00000+0  00000+0 0  9994
2 28526   6.4811  70.2937 0003113  24.5014 329.1295  1.00271305 53285
ASTRA 1KR               
1 29055U 06012A   26181.51896742  .00000129  00000+0  00000+0 0  9990
2 29055   0.5068  83.2336 0003779   8.3673  32.8071  1.00270711 45830
ASTRA 1L                
1 31306U 07016A   26181.40360841 -.00000175  00000+0  00000+0 0  9993
2 31306   1.3543  81.4906 0005703  20.0351 297.7529  1.00272331 45116
ASTRA 4A                
1 32299U 07057A   26181.37356764  .00000043  00000+0  00000+0 0  9998
2 32299   0.0123 348.8253 0002653 111.6281 317.2674  1.00272061 51771
ASTRA 1M                
1 33436U 08057A   26181.51888075  .00000131  00000+0  00000+0 0  9992
2 33436   0.3294  82.6617 0005021  29.7944  12.3073  1.00270928 45871
NSS-9                   
1 33749U 09008A   26181.43794980  .00000081  00000+0  00000+0 0  9992
2 33749   1.2944  82.5421 0002442   7.8133 168.8781  1.00271763 63650
SES-7 (PROTOSTAR 2)     
1 34941U 09027A   26181.32283311 -.00000334  00000+0  00000+0 0  9999
2 34941   0.0443  70.6570 0000193   8.9649  63.2199  1.00269967 62769
NSS-12                  
1 36032U 09058A   26181.52653723  .00000082  00000+0  00000+0 0  9995
2 36032   0.0685 276.8599 0004959 150.7405  97.5374  1.00271667 61057
SES-1                   
1 36516U 10016A   26181.59817933 -.00000104  00000+0  00000+0 0  9996
2 36516   0.0206 320.6511 0002950 135.1829 297.1768  1.00272165 59169
ASTRA 3B                
1 36581U 10021A   26181.30597750  .00000146  00000+0  00000+0 0  9990
2 36581   1.5028  83.4002 0004209  12.4507 316.1631  1.00270152 58992
SES-3                   
1 37748U 11035A   26181.59888538 -.00000092  00000+0  00000+0 0  9991
2 37748   1.3599  82.9571 0002466   6.4848 301.8230  1.00272474 54720
ASTRA 1N                
1 37775U 11041A   26181.51888075  .00000130  00000+0  00000+0 0  9998
2 37775   0.0865  42.0130 0005940  55.9837  26.5593  1.00272039 44669
SES-2                   
1 37809U 11049A   26181.49799399 -.00000185  00000+0  00000+0 0  9992
2 37809   0.0925  93.4752 0003121   4.3321 273.0351  1.00271450 54094
QUETZSAT 1              
1 37826U 11054A   26181.49998733 -.00000231  00000+0  00000+0 0  9992
2 37826   0.0110   8.5007 0002997  95.6687 277.4013  1.00271309 50000
SES-4                   
1 38087U 12007A   26181.36828095 -.00000158  00000+0  00000+0 0  9998
2 38087   0.0207  48.2056 0002440  49.1777 291.6329  1.00269653 52356
SES-5                   
1 38652U 12036A   26181.01722808  .00000045  00000+0  00000+0 0  9999
2 38652   0.0478 315.7119 0002343 147.2651 186.2965  1.00272061 44587
ASTRA 2F                
1 38778U 12051A   26181.30693083  .00000161  00000+0  00000+0 0  9998
2 38778   0.0766 255.1045 0002179 274.2278 247.7348  1.00271361 41266
SES-6                   
1 39172U 13026A   26181.50718069 -.00000250  00000+0  00000+0 0  9994
2 39172   0.0252 322.6498 0002948 152.5741 305.4427  1.00272531 47855
O3B FM5                 
1 39188U 13031A   26181.43264774 -.00000020  00000+0  00000+0 0  9993
2 39188   0.0968 339.9375 0002872 105.9417 274.1529  5.00115681237693
O3B FM4                 
1 39189U 13031B   26179.75307021 -.00000021  00000+0  00000+0 0  9990
2 39189   0.0415 346.5237 0005075  97.0131 276.5203  5.00115368237624
O3B FM2                 
1 39190U 13031C   26181.41768321 -.00000020  00000+0  00000+0 0  9991
2 39190   0.0361 342.1759 0002748 113.2750 264.5796  5.00116107237771
O3B PFM                 
1 39191U 13031D   26181.43180331 -.00000020  00000+0  00000+0 0  9993
2 39191   0.0670 349.1783 0005339 101.5224 269.3597  5.00116104237324
ASTRA 2E                
1 39285U 13056A   26181.30701750  .00000161  00000+0  00000+0 0  9999
2 39285   0.0582 337.8739 0002559 129.6372 309.8704  1.00272625 46540
SES-8                   
1 39460U 13071A   26181.46271699 -.00000259  00000+0  00000+0 0  9991
2 39460   0.0468 268.4675 0003065 190.7214  80.9197  1.00271015 44568
ASTRA 5B                
1 39617U 14011B   26181.30597750  .00000148  00000+0  00000+0 0  9998
2 39617   0.0487 333.3802 0002164 112.8883 325.7470  1.00274123 44795
O3B FM3                 
1 40079U 14038A   26181.29859545 -.00000020  00000+0  00000+0 0  9992
2 40079   0.0478 353.2817 0002489 162.0005 204.7289  5.00115768213705
O3B FM7                 
1 40080U 14038B   26181.24471478 -.00000020  00000+0  00000+0 0  9994
2 40080   0.0461 344.3822 0003716  85.9373 289.7198  5.00115743218532
O3B FM6                 
1 40081U 14038C   26180.67202033 -.00000021  00000+0  00000+0 0  9991
2 40081   0.0466 350.0765 0002646 107.1978 262.7550  5.00115844218453
O3B FM8                 
1 40082U 14038D   26181.12504659 -.00000020  00000+0  00000+0 0  9991
2 40082   0.0464 348.8057 0002769 111.5478 259.6768  5.00116170218595
O3B FM10                
1 40348U 14083A   26181.35218119 -.00000020  00000+0  00000+0 0  9994
2 40348   0.0357 330.6093 0002895 132.1065 257.3157  5.00115454210549
O3B FM11                
1 40349U 14083B   26181.16493606 -.00000020  00000+0  00000+0 0  9990
2 40349   0.0553 352.8770 0002634  88.8991 278.2530  5.00115598210559
O3B FM12                
1 40350U 14083C   26181.39182891 -.00000020  00000+0  00000+0 0  9998
2 40350   0.0544 353.0210 0002521 103.1075 263.8994  5.00116034210585
O3B FM9                 
1 40351U 14083D   26181.41865690 -.00000020  00000+0  00000+0 0  9997
2 40351   0.0562 352.1404 0002680 104.8363 263.0530  5.00116112210737
ASTRA 2G                
1 40364U 14089A   26181.30693083  .00000161  00000+0  00000+0 0  9995
2 40364   0.0472 344.6054 0004721  97.3076 335.1718  1.00275221 42097
SES-9                   
1 41380U 16013A   26180.89503035 -.00000333  00000+0  00000+0 0  9995
2 41380   0.0169 324.8194 0002317 119.9023 263.7565  1.00265394 37568
SES-10                  
1 42432U 17017A   26181.50198067 -.00000262  00000+0  00000+0 0  9994
2 42432   0.0179  36.2420 0003034  66.9446 289.1941  1.00269289 33889
SES-15                  
1 42709U 17026A   26181.60863166  .00000071  00000+0  00000+0 0  9998
2 42709   0.0220 335.3231 0000739 109.5111 283.7837  1.00268825  7563
SES-11 (ECHOSTAR 105)   
1 42967U 17063A   26181.59958080 -.00000079  00000+0  00000+0 0  9992
2 42967   0.0237 322.2319 0002996 135.0959 292.2430  1.00271769 31854
SES-14                  
1 43175U 18012B   26181.50579403 -.00000268  00000+0  00000+0 0  9998
2 43175   0.0167  30.3380 0001277  67.3166 315.5024  1.00270884  7152
O3B FM15                
1 43231U 18024A   26180.88579698 -.00000020  00000+0  00000+0 0  9996
2 43231   0.0520   0.9522 0002623  95.0487 264.0282  5.00115872151668
O3B FM16                
1 43232U 18024B   26180.33845418 -.00000021  00000+0  00000+0 0  9994
2 43232   0.0519   5.6355 0002643  89.6595 264.7343  5.00116041151556
O3B FM14                
1 43233U 18024C   26181.17882563 -.00000020  00000+0  00000+0 0  9999
2 43233   0.0507   6.5190 0002890  91.8737 261.6392  5.00115814151601
O3B FM13                
1 43234U 18024D   26181.24469957 -.00000020  00000+0  00000+0 0  9996
2 43234   0.0538 326.2918 0002505  80.3508 313.3774  5.00115751151719
SES-12                  
1 43488U 18049A   26181.46271699 -.00000258  00000+0  00000+0 0  9995
2 43488   0.0121  12.2465 0000363 236.9656 290.8932  1.00270432 29555
O3B FM20                
1 44112U 19020A   26181.40477666 -.00000020  00000+0  00000+0 0  9993
2 44112   0.0523 357.2303 0002402  93.6594 269.1370  5.00115683132239
O3B FM19                
1 44113U 19020B   26181.43179188 -.00000020  00000+0  00000+0 0  9995
2 44113   0.0754 337.0449 0003818 103.5402 279.4573  5.00116035132099
O3B FM17                
1 44114U 19020C   26181.31207194 -.00000020  00000+0  00000+0 0  9992
2 44114   0.0349   9.5255 0002587  88.1916 262.3114  5.00115658132188
O3B FM18                
1 44115U 19020D   26181.05851765 -.00000020  00000+0  00000+0 0  9993
2 44115   0.0527 357.1628 0002775 101.6907 261.1771  5.00115447132297
SES-17                  
1 49332U 21095A   26181.50189400 -.00000261  00000+0  00000+0 0  9991
2 49332   0.0240  40.8955 0001232  56.7024 294.5499  1.00269400 17981
SES-22                  
1 52933U 22071A   26181.61282355  .00000115  00000+0  00000+0 0  9999
2 52933   0.0180   9.6252 0001318  81.8640 268.7923  1.00271902  7654
SES-20                  
1 53960U 22123A   26181.59888515 -.00000090  00000+0  00000+0 0  9998
2 53960   0.0202  59.4918 0002167  39.9780 291.6770  1.00269721 13663
SES-21                  
1 53961U 22123B   26180.99029678  .00000000  00000+0  00000+0 0  9999
2 53961   0.0399  24.7137 0000886  72.6667  46.2618  1.00268246  7347
O3B MPOWER F1           
1 54755U 22174A   26181.50265836 -.00000020  00000+0  00000+0 0  9996
2 54755   0.0507 340.4491 0006534 130.8415 188.5186  5.00114982 66026
O3B MPOWER F2           
1 54756U 22174B   26181.30294182 -.00000020  00000+0  00000+0 0  9991
2 54756   0.0466 340.4165 0005833 114.5158 265.1335  5.00115064 66102
SES-18                  
1 55970U 23038A   26180.56802275 -.00000090  00000+0  00000+0 0  9992
2 55970   0.0453 271.8954 0000799 237.1209 230.0202  1.00271951 12227
SES-19                  
1 55971U 23038B   26181.61072765  .00000098  00000+0  00000+0 0  9990
2 55971   0.0115  11.3566 0002015  91.0183 261.2669  1.00273946 12229
O3B MPOWER F4           
1 56367U 23059A   26181.16729649 -.00000020  00000+0  00000+0 0  9999
2 56367   0.0631 352.4954 0007689 112.0097 255.5794  5.00115534 59253
O3B MPOWER F3           
1 56368U 23059B   26181.20045780 -.00000020  00000+0  00000+0 0  9992
2 56368   0.0639 351.9193 0006709 104.7430 263.4133  5.00116540 55385
O3B MPOWER F5           
1 58346U 23175A   26181.30143981 -.00000020  00000+0  00000+0 0  9992
2 58346   0.0505  10.5579 0005325 106.2808 243.2149  5.00116029 50098
O3B MPOWER F6           
1 58347U 23175B   26181.40191101 -.00000020  00000+0  00000+0 0  9991
2 58347   0.0531   2.2825 0004477  93.4634 264.3043  5.00115998 49012
ASTRA 1P (SES-24)       
1 60086U 24115A   26181.51888075  .00000130  00000+0  00000+0 0  9995
2 60086   0.0607 340.4604 0000346 147.2425 356.8986  1.00269505  7330
O3B MPOWER F7           
1 62362U 24244A   26181.06851788 -.00000020  00000+0  00000+0 0  9997
2 62362   0.0670 345.6937 0006018 109.1807 265.1936  5.00115345 27175
O3B MPOWER F8           
1 62363U 24244B   26181.23535024 -.00000020  00000+0  00000+0 0  9999
2 62363   0.0145 346.2379 0005862 101.9951 271.8333  5.00115142 21529
O3B MPOWER F9           
1 64866U 25153A   26181.36864328 -.00000020  00000+0  00000+0 0  9995
2 64866   0.0598   7.8625 0006563 111.3191 240.8832  5.00115816 20229
O3B MPOWER F10          
1 64867U 25153B   26180.93488910 -.00000020  00000+0  00000+0 0  9997
2 64867   0.0573   4.1715 0002028 247.2264 108.5791  5.00114948 22675
